LANDSAT 5               
1 14780U 84021A   08167.77209883  .00000016  00000-0  13494-4 0  4370
2 14780  98.1488 234.4141 0006991 150.1181 210.0419 14.57140962292022
SPOT 2                  
1 20436U 90005A   08167.89567003  .00000094  00000-0  64399-4 0  3317
2 20436  98.6486 239.5593 0001022 139.9962 331.8239 14.20062828953704
ERS-2                   
1 23560U 95021A   08167.84732798 -.00000010  00000-0  12567-4 0   766
2 23560  98.5496 241.9820 0001157  89.7359 270.3949 14.32245603687779
RADARSAT-1              
1 23710U 95059A   08167.86489938  .00000077  00000-0  46889-4 0  2095
2 23710  98.5767 173.8913 0001124  86.6678  32.8072 14.29979321658455
TOMS EP                 
1 23940U 96037A   08166.72055477 -.00000017  00000-0  64499-5 0  7984
2 23940  98.0819  47.7129 0030336  52.8516 307.5454 14.52184124636091
MIDORI (ADEOS)          
1 24277U 96046A   08167.85684095 -.00000020  00000-0  83123-5 0  7908
2 24277  98.3135 142.5424 0000639 348.4459  11.6711 14.28585227616622
ORBVIEW 2 (SEASTAR)     
1 24883U 97037A   08167.41077420 -.00000024  00000-0  49243-5 0  3480
2 24883  98.3041 283.8853 0000646 282.3061  77.8072 14.59944223578922
IRS-1D                  
1 24971U 97057A   08167.83949411 -.00000032  00000-0  34300-5 0  2895
2 24971  98.2873 214.6959 0053741 307.2368  52.3915 14.32951281560368
TRMM                    
1 25063U 97074A   08167.50581490  .00001710  00000-0  24486-4 0  7992
2 25063  34.9666 243.8439 0000820 306.6032  53.4674 15.56027188602948
SPOT 4                  
1 25260U 98017A   08167.88376385  .00000169  00000-0  10000-3 0  1082
2 25260  98.6981 240.7980 0001111 119.8144  10.7546 14.20044062530341
FASAT B                 
1 25395U 98043B   08167.49439634  .00000022  00000-0  27285-4 0  1873
2 25395  98.3810 210.4126 0002227 181.8101 178.3073 14.24296922516242
TECHSAT 1B (GO-32)      
1 25397U 98043D   08167.21226039  .00000022  00000-0  27793-4 0  6237
2 25397  98.3636 202.4723 0000386 209.7981 150.3194 14.23144659515931
LANDSAT 7               
1 25682U 99020A   08167.87653046 -.00000046  00000-0 -30883-6 0  5237
2 25682  98.1931 234.9963 0000715 103.5843 256.5427 14.57121913487733
KITSAT 3                
1 25756U 99029A   08167.07133751  .00000070  00000-0  28900-4 0  6529
2 25756  98.6594 341.9908 0013657 206.3907 153.6607 14.52501421479868
DLR-TUBSAT              
1 25757U 99029B   08167.86546003 -.00000052  00000-0 -99568-6 0  7753
2 25757  98.6612 334.0818 0013846 227.7246 132.2772 14.50823435479592
IRS-P4 (OCEANSAT 1)     
1 25758U 99029C   08167.37646603  .00000002  00000-0  11615-4 0  8879
2 25758  98.2812 262.1891 0000594  47.9356 312.1895 14.50851874479675
QUIKSCAT                
1 25789U 99034A   08167.11715904 -.00000026  00000-0  72905-5 0  1704
2 25789  98.6368 355.0472 0000417  68.6388 291.4843 14.26772514468110
IKONOS 2                
1 25919U 99051A   08167.84194734 -.00000102  00000-0 -10444-4 0  6373
2 25919  98.1068 242.6337 0001580 110.8577 249.2781 14.64449563466443
CBERS 1 (ZY 1A)         
1 25940U 99057A   08167.86222266  .00000027  00000-0  23903-4 0  7927
2 25940  98.1652 187.4703 0006457  99.3691 260.8226 14.34422000454292
TERRA                   
1 25994U 99068A   08167.82738363  .00000011  00000-0  12401-4 0  6804
2 25994  98.2114 242.0094 0001709  90.4273 269.7112 14.57110674451801
ARIRANG 1 (KOMPSAT-1)   
1 26032U 99070A   08167.86877171  .00000053  00000-0  18312-4 0  8407
2 26032  97.9707  54.5700 0004437 330.0416  30.0530 14.65525738453830
EO-1                    
1 26619U 00075A   08167.82994481 -.00000378  00000-0 -66385-4 0   536
2 26619  98.1504 234.4365 0009508  21.7054 338.4520 14.61762229402743
SAC C                   
1 26620U 00075B   08166.73359751 -.00000009  00000-0  75683-5 0  4505
2 26620  97.9568 211.1378 0001673  80.1013 280.0382 14.56544370402182
EROS A1                 
1 26631U 00079A   08167.85115645  .00000868  00000-0  40295-4 0  7838
2 26631  97.3641 233.8943 0008121 160.3744 312.8145 15.22624069418812
QUICKBIRD 2             
1 26953U 01047A   08167.78414846  .00001124  00000-0  30292-4 0  8358
2 26953  97.1802 246.1068 0002321 106.2166  42.5014 15.39880356374223
TES                     
1 26957U 01049A   08167.77674888 -.00000082  00000-0 -19220-5 0   576
2 26957  97.5660 249.6732 0019052  17.2917 342.8945 14.99699069364270
JASON-1                 
1 26997U 01055A   08167.37253863 -.00000038  00000-0  10000-3 0  9089
2 26997  66.0396 112.5434 0008257 268.2159  91.7911 12.80929911305053
METEOR-3M               
1 27001U 01056A   08167.21153337 -.00000044  00000-0 -14752-5 0  2008
2 27001  99.3096  30.5883 0013025 271.9982  87.9673 13.68700489325314
BADR B                  
1 27003U 01056C   08167.36445594  .00000116  00000-0  17993-3 0  1033
2 27003  99.3029  36.4471 0019700 276.6978  83.1892 13.70093733325729
MAROC-TUBSAT            
1 27004U 01056D   08167.47110014  .00000116  00000-0  18044-3 0  1164
2 27004  99.3012  36.0203 0019308 277.3761  82.5145 13.70023954325714
ENVISAT                 
1 27386U 02009A   08167.40736022  .00000040  00000-0  31155-4 0  5701
2 27386  98.5470 234.0597 0001009  86.1020 274.0295 14.32248406328992
SPOT 5                  
1 27421U 02021A   08167.83608314 -.00000001  00000-0  20079-4 0   306
2 27421  98.6853 239.5746 0001610  80.4407 279.6942 14.20041496317173
AQUA                    
1 27424U 02022A   08167.50356871 -.00000057  00000-0 -25276-5 0  8330
2 27424  98.2305 108.0927 0001395  87.4355 272.6987 14.57100281325364
HAIYANG-1A              
1 27430U 02024A   08167.41137606  .00000023  00000-0  25912-4 0  7967
2 27430  98.5272 236.1571 0009949  78.3220 281.9079 14.29654689317662
ALSAT 1                 
1 27559U 02054A   08167.80935521  .00000009  00000-0  10749-4 0  3284
2 27559  97.9960  48.6709 0011135 143.5189 216.6772 14.62967194296126
MIDORI II (ADEOS-II)    
1 27597U 02056A   08166.99578775  .00000057  00000-0  41840-4 0  5855
2 27597  98.5199 236.3393 0000271  23.5527 336.5662 14.26130612286458
ICESAT                  
1 27642U 03002A   08167.88323274  .00000295  00000-0  31257-4 0  8880
2 27642  94.0092 106.7580 0002337  64.3219 295.8248 14.90873379295098
ORBVIEW 3               
1 27838U 03030A   08167.81167897  .00000958  00000-0  26422-4 0  3731
2 27838  97.1067 232.2116 0001443  66.4980  70.5131 15.39480166279011
IRS-P6 (RESOURCESAT-1)  
1 28051U 03046A   08167.77399434  .00000012  00000-0  25562-4 0  5743
2 28051  98.7507 241.4789 0003097 110.3879 249.7631 14.21610628242053
CBERS 2 (ZY 1B)         
1 28057U 03049A   08167.84237624 -.00000104  00000-0 -21528-4 0  3708
2 28057  98.3351 227.5259 0001072 183.1428 176.9745 14.35332532243854
TANSUO 1                
1 28220U 04012A   08167.70709348 -.00000000  00000-0  55368-5 0  9062
2 28220  97.5428 217.6725 0011503 338.0476  22.0285 14.88519091225893
FORMOSAT-2 (ROCSAT 2)   
1 28254U 04018A   08167.86677214  .00000106  00000-0  10000-3 0  6759
2 28254  98.9257 231.3771 0002562 161.4269 326.8982 14.00809059208230
AURA                    
1 28376U 04026A   08167.37158837  .00000072  00000-0  26164-4 0  2302
2 28376  98.2286 110.1302 0001570  95.1817 264.9573 14.57115439208393
PARASOL                 
1 28498U 04049G   08166.88704658  .00000084  00000-0  28757-4 0  1453
2 28498  98.2323 107.1880 0001067  89.7239 270.4093 14.57106084185596
IRS-P5 (CARTOSAT-1)     
1 28649U 05017A   08167.88625034  .00000045  00000-0  12134-4 0  5619
2 28649  97.9069 239.9146 0001475 109.3027 250.8338 14.82636087168586
TOPSAT                  
1 28891U 05043B   08167.85945477 -.00000025  00000-0  42707-5 0  9848
2 28891  98.0939  61.4794 0018290  56.5030 303.7913 14.59722221140420
SINAH 1                 
1 28893U 05043D   08167.77711769 -.00000017  00000-0  60538-5 0  9502
2 28893  98.0952  62.0090 0016643  56.0186 304.2591 14.60043420140449
ALOS (DAICHI)           
1 28931U 06002A   08167.78701977 -.00015930  00000-0 -33370-2 0  7142
2 28931  98.1856 241.0002 0002762 141.6839 218.4530 14.59752267127450
EROS B                  
1 29079U 06014A   08167.80464914  .00000708  00000-0  34786-4 0  4527
2 29079  97.4080 287.6963 0006003 230.8451 281.6911 15.21244602118803
RSS-1 (YAOGAN 1)        
1 29092U 06015A   08167.85825443  .00000023  00000-0  96203-5 0  4226
2 29092  97.8167 164.9955 0000689  71.9203 288.2085 14.80288573115574
RESURS-DK 1             
1 29228U 06021A   08167.80915670  .00000536  00000-0  14278-4 0  2825
2 29228  69.9331 271.5040 0158278  36.2171 324.9597 15.34727660112145
ARIRANG 2 (KOMPSAT-2)   
1 29268U 06031A   08167.80327066  .00000018  00000-0  12937-4 0  1202
2 29268  98.0788  63.6539 0016935 214.2923 145.7184 14.61646275100562
LAPAN-TUBSAT            
1 29709U 07001A   08167.88739684 -.00000011  00000-0  53948-5 0  5904
2 29709  97.8660 225.9959 0014416  38.9754 321.2489 14.80217084 77297
CARTOSAT-2 (IRS-P7)     
1 29710U 07001B   08167.81754724  .00000032  00000-0  11290-4 0  6008
2 29710  97.9322 228.6839 0002224 102.4853 257.6604 14.78642054 77245
HAIYANG-1B              
1 31113U 07010A   08167.87151575 -.00000019  00000-0  97716-5 0  3279
2 31113  98.5833 241.9390 0022969  39.4787 320.8057 14.28049594 61627
COSMO-SKYMED 1          
1 31598U 07023A   08167.81919448 -.00000001  00000-0  63865-5 0  1698
2 31598  97.8682 356.8337 0001508  81.9418 278.1969 14.82167243 55356
TERRASAR-X              
1 31698U 07026A   08167.84746765 -.00000060  00000-0  33963-6 0  1260
2 31698  97.4448 174.4918 0001522  77.6512  43.8648 15.19149575 55658
WORLDVIEW-1 (WV-1)      
1 32060U 07041A   08167.81237487  .00000297  00000-0  15107-4 0  8530
2 32060  97.4662 241.4773 0001938  62.0595  87.7574 15.24211649 41270
CBERS 2B                
1 32062U 07042A   08167.84448210 -.00000017  00000-0  91670-5 0  8399
2 32062  98.5203 243.0051 0001004 114.0327 246.0956 14.35437762 38847
COSMO-SKYMED 2          
1 32376U 07059A   08167.85291687 -.00000006  00000-0  57956-5 0  5855
2 32376  97.8680 356.8679 0001460  74.3303 285.8072 14.82170036 28101
CARTOSAT-2A             
1 32783U 08021A   08167.78308139 -.00000085  00000-0 -44015-5 0  1676
2 32783  97.9997 227.5516 0016811 156.7687 203.4268 14.78582290  7187
IMS-1                   
1 32786U 08021D   08166.93041510  .00000027  00000-0  10546-4 0   788
2 32786  97.9938 226.7736 0013387 134.1691 226.0624 14.80025511  7065
